{
  "norad_id": 54182,
  "name": "STARLINK-5231",
  "history": [
    {
      "epoch": "2026-03-28T19:53:49.275456",
      "apogee_km": 540.6329422280996,
      "perigee_km": 538.8479914841009,
      "latitude_deg": 45.08759319622987,
      "longitude_deg": 37.78808383992873,
      "semi_major_axis_km": 6917.8774668561,
      "eccentricity": 0.00012901,
      "inclination_deg": 53.2168,
      "raan_deg": 247.8348,
      "arg_perigee_deg": 89.9466,
      "mean_anomaly_deg": 270.1674,
      "mean_motion_rev_day": 15.08840956
    }
  ]
}